STARLINK-4433           
1 53478U 22099P   23238.30599034  .00001024  00000+0  84312-4 0  9998
2 53478  97.6558 358.3804 0003357 215.2035 144.8968 15.01256110 56997
STARLINK-4436           
1 53479U 22099Q   23238.23748971  .00001602  00000+0  12928-3 0  9992
2 53479  97.6563 358.2994 0002874 202.1101 158.0000 15.01254976 56986
STARLINK-4442           
1 53480U 22099R   23238.30784110  .00001630  00000+0  13145-3 0  9990
2 53480  97.6558 358.3690 0003351 226.0841 134.0107 15.01257201 56990
STARLINK-4302           
1 53481U 22099S   23238.30228906  .00000727  00000+0  61181-4 0  9997
2 53481  97.6561 358.3618 0002176 199.6326 160.4815 15.01261651 56995
STARLINK-4360           
1 53482U 22099T   23238.35783084  .00001337  00000+0  10870-3 0  9992
2 53482  97.6578 358.4526 0001603 224.6577 135.4518 15.01259692 57001
STARLINK-4401           
1 53483U 22099U   23238.35598044  .00000640  00000+0  54444-4 0  9995
2 53483  97.6571 358.4448 0000914 202.0268 158.0917 15.01263591 57006
STARLINK-4426           
1 53484U 22099V   23238.30042570 -.00006123  00000+0 -47211-3 0  9996
2 53484  97.6564 358.3610 0001393 193.0610 167.0578 15.01292081 56997
STARLINK-4430           
1 53485U 22099W   23238.36153042  .00001159  00000+0  94792-4 0  9999
2 53485  97.6588 358.4272 0000613 194.1998 165.9209 15.01269915 57005
STARLINK-4431           
1 53486U 22099X   23238.29858678  .00000680  00000+0  57538-4 0  9994
2 53486  97.6571 358.3600 0000959 209.5936 150.5234 15.01261992 56990
STARLINK-4432           
1 53487U 22099Y   23238.36547875  .00000193  00000+0  19614-4 0  9999
2 53487  97.6569 358.4067 0003084 220.8291 139.2703 15.01267450 57001
STARLINK-4421           
1 53488U 22099Z   23238.36338467  .00001100  00000+0  90169-4 0  9998
2 53488  97.6586 358.4255 0000413 203.1910 156.9296 15.01265465 57002
STARLINK-4392           
1 53489U 22099AA  23238.29697695  .00000898  00000+0  74485-4 0  9998
2 53489  97.6591 358.3420 0002795 221.6410 138.4602 15.01264154 56994
STARLINK-4387           
1 53490U 22099AB  23238.35968176  .00001156  00000+0  94527-4 0  9999
2 53490  97.6591 358.4283 0000494 212.6366 147.4828 15.01267642 57006
STARLINK-4450           
1 53491U 22099AC  23238.34882080  .00001133  00000+0  92814-4 0  9990
2 53491  97.6573 358.4326 0000875 108.0145 252.1174 15.01264358 57000
STARLINK-4451           
1 53492U 22099AD  23238.28748115  .00000979  00000+0  80815-4 0  9999
2 53492  97.6574 358.3650 0000089 162.8563 197.2665 15.01259174 56991
STARLINK-4361           
1 53493U 22099AE  23238.35227906  .00000854  00000+0  71024-4 0  9992
2 53493  97.6571 358.4177 0000305 138.3361 221.7887 15.01267424 57008
STARLINK-4340           
1 53494U 22099AF  23238.28957982  .00003719  00000+0  29402-3 0  9994
2 53494  97.6585 358.3583 0000380 209.6568 150.4635 15.01251010 56998
STARLINK-4429           
1 53495U 22099AG  23238.34672910  .00001241  00000+0  10118-3 0  9999
2 53495  97.6569 358.4233 0001854  92.5075 267.6362 15.01264727 57003
STARLINK-4465           
1 53496U 22099AH  23238.35043109  .00001387  00000+0  11253-3 0  9995
2 53496  97.6572 358.4249 0001697  92.5355 267.6064 15.01263879 57007
STARLINK-4453           
1 53497U 22099AJ  23238.34302709  .00001532  00000+0  12380-3 0  9993
2 53497  97.6568 358.4194 0001733  95.2310 264.9112 15.01261963 57000
STARLINK-4439           
1 53498U 22099AK  23238.34327009  .00001064  00000+0  87395-4 0  9993
2 53498  97.6567 358.4315 0001759  88.8229 271.3196 15.01262065 57008
STARLINK-4454           
1 53499U 22099AL  23238.28192972  .00000518  00000+0  44943-4 0  9991
2 53499  97.6567 358.3426 0001055 104.5935 255.5406 15.01260051 56998
STARLINK-4455           
1 53500U 22099AM  23238.34487780  .00001636  00000+0  13189-3 0  9994
2 53500  97.6565 358.4218 0001892  87.3877 272.7563 15.01263736 57002
STARLINK-4434           
1 53501U 22099AN  23238.33401330  .00000829  00000+0  69128-4 0  9999
2 53501  97.6554 358.4170 0001755  83.5203 276.6221 15.01263936 57003
STARLINK-4435           
1 53502U 22099AP  23238.34117534  .00001410  00000+0  11435-3 0  9995
2 53502  97.6554 358.4178 0002058  94.7108 265.4351 15.01263333 57008
STARLINK-4461           
1 53503U 22099AQ  23238.33562220  .00001665  00000+0  13417-3 0  9995
2 53503  97.6555 358.4120 0001692  95.2211 264.9206 15.01258422 57007
STARLINK-4448           
1 53504U 22099AR  23238.33932417  .00001122  00000+0  91908-4 0  9995
2 53504  97.6555 358.4160 0001972  88.0423 272.1027 15.01265505 57000
STARLINK-4446           
1 53505U 22099AS  23238.33192039  .00000675  00000+0  57179-4 0  9998
2 53505  97.6558 358.4067 0001667  80.4874 279.6538 15.01260265 57004
STARLINK-4437           
1 53506U 22099AT  23238.33747169  .00001957  00000+0  15687-3 0  9990
2 53506  97.6547 358.4061 0002074  92.8198 267.3264 15.01265147 57000
STARLINK-4444           
1 53507U 22099AU  23238.33006560  .00000475  00000+0  41586-4 0  9996
2 53507  97.6551 358.4046 0001800  78.6604 281.4823 15.01265674 57002
STARLINK-4443           
1 53508U 22099AV  23238.33377492  .00000962  00000+0  79464-4 0  9999
2 53508  97.6550 358.4082 0001934  64.0591 296.0833 15.01256963 57008
STARLINK-4402           
1 53509U 22099AW  23238.32691614 -.00039440  00000+0 -31089-2 0  9998
2 53509  97.6554 358.3992 0001315  27.3028 332.8265 15.00943553 57007
STARLINK-4441           
1 53510U 22099AX  23238.32821746  .00000479  00000+0  41912-4 0  9997
2 53510  97.6552 358.4009 0001597  96.7535 263.3871 15.01258723 57002
STARLINK-4511           
1 53527U 22101A   23238.47470301  .00001394  00000+0  10565-3 0  9998
2 53527  53.2160 272.0578 0001384  92.7090 267.4060 15.08843839 56336
STARLINK-4503           
1 53528U 22101B   23238.41214353  .00001121  00000+0  88526-4 0  9997
2 53528  53.2163 272.3410 0001234  92.3876 267.7257 15.08841669 56329
STARLINK-4478           
1 53529U 22101C   23238.47102904 -.00000829  00000+0 -34042-4 0  9992
2 53529  53.2154 272.0739 0001075  92.2913 267.8202 15.08830415 56334
STARLINK-4482           
1 53530U 22101D   23238.33214303  .00000670  00000+0  60187-4 0  9997
2 53530  53.2162 272.6993 0001401  99.3814 260.7337 15.08837277 56316
STARLINK-4487           
1 53531U 22101E   23238.33486360  .00000977  00000+0  79467-4 0  9993
2 53531  53.2158 272.6872 0001093  89.2341 270.8776 15.08838440 56310
STARLINK-4483           
1 53532U 22101F   23238.50046100  .00000486  00000+0  48606-4 0  9993
2 53532  53.2164 271.9454 0001380  86.0321 274.0829 15.08843550 56344
STARLINK-4493           
1 53533U 22101G   23238.36430242  .00000840  00000+0  70887-4 0  9992
2 53533  53.2169 272.5465 0001366  83.3037 276.8111 15.08841031 56321
STARLINK-4488           
1 53534U 22101H   23238.41950270  .00002185  00000+0  15533-3 0  9997
2 53534  53.2160 272.3108 0001328  94.4297 265.6847 15.08843704 56336
STARLINK-4138           
1 53535U 22101J   23238.49309994  .00002585  00000+0  18047-3 0  9994
2 53535  53.2164 271.9772 0001162  71.6645 288.4474 15.08837427 56348
STARLINK-4053           
1 53536U 22101K   23238.34682835  .00001621  00000+0  11988-3 0  9994
2 53536  53.2154 262.6733 0001071  85.7739 274.3376 15.08842325 56451
STARLINK-4120           
1 53537U 22101L   23238.36157771  .00000796  00000+0  68086-4 0  9997
2 53537  53.2174 272.5404 0001422  81.3026 278.8128 15.08841264 56321
STARLINK-4118           
1 53538U 22101M   23238.47193898  .00001198  00000+0  93336-4 0  9993
2 53538  53.2155 262.0700 0001252  83.2183 276.8951 15.08844133 57163
STARLINK-4123           
1 53539U 22101N   23238.42318203  .00000977  00000+0  79439-4 0  9990
2 53539  53.2166 272.2924 0000937  84.3253 275.7846 15.08841873 56333
STARLINK-4486           
1 53540U 22101P   23238.46825945  .00001328  00000+0  10146-3 0  9992
2 53540  53.2156 262.0871 0001086  87.5358 272.5758 15.08844985 57165
STARLINK-4485           
1 53541U 22101Q   23238.41582496  .00001679  00000+0  12355-3 0  9992
2 53541  53.2161 272.3276 0001303  97.6177 262.4963 15.08836867 57029
STARLINK-4489           
1 53542U 22101R   23238.39466480  .00001120  00000+0  88458-4 0  9993
2 53542  53.2159 262.4170 0001346  90.4284 269.6862 15.08840934 57158
STARLINK-4297           
1 53543U 22101S   23238.47562726  .00001725  00000+0  12641-3 0  9994
2 53543  53.2160 262.1223 0001347  82.9800 277.1345 15.08846264 57161
STARLINK-4303           
1 53544U 22101T   23238.38730297  .00001035  00000+0  83118-4 0  9997
2 53544  53.2160 262.4505 0001372  91.1906 268.9243 15.08841625 57133
STARLINK-4475           
1 53545U 22101U   23238.33210630  .00001688  00000+0  12414-3 0  9991
2 53545  53.2153 262.6981 0001067  90.4956 269.6159 15.08837086 57145
STARLINK-4477           
1 53546U 22101V   23238.27040647  .00001290  00000+0  99125-4 0  9998
2 53546  53.2158 252.5089 0001299  86.9058 273.2083 15.08836859 56590
STARLINK-4474           
1 53547U 22101W   23238.45722140  .00001680  00000+0  12359-3 0  9990
2 53547  53.2157 262.1365 0001273  90.0279 270.0859 15.08844330 57148
STARLINK-4513           
1 53548U 22101X   23238.50874213  .00001574  00000+0  11695-3 0  9990
2 53548  53.2162 261.9121 0001396  90.3727 269.7425 15.08843069 56487
STARLINK-4516           
1 53549U 22101Y   23238.38361640  .00001844  00000+0  13389-3 0  9994
2 53549  53.2160 262.4682 0001338  90.9298 269.1847 15.08846459 57129
STARLINK-4518           
1 53550U 22101Z   23238.50506263  .00001209  00000+0  94003-4 0  9990
2 53550  53.2160 261.9272 0001054  98.7860 261.3251 15.08841001 57149
STARLINK-4514           
1 53551U 22101AA  23238.37994350 -.00000122  00000+0  10431-4 0  9991
2 53551  53.2166 262.4855 0001536  95.9047 264.2120 15.08838454 57123
STARLINK-4495           
1 53552U 22101AB  23238.36522279 -.00000117  00000+0  10754-4 0  9990
2 53552  53.2166 262.5546 0001427 102.5036 257.6116 15.08837962 57117
